NORAD_CAT_ID,OBJECT_NAME,OBJECT_TYPE,EPOCH,MEAN_MOTION,ECCENTRICITY,INCLINATION,RA_OF_ASC_NODE,ARG_OF_PERICENTER,MEAN_ANOMALY,BSTAR,MEAN_MOTION_DOT,MEAN_MOTION_DDOT,TLE_LINE0,TLE_LINE1,TLE_LINE2,SEMIMAJOR_AXIS,PERIOD,APOGEE,PERIGEE,DECAYED
52286.0,STARLINK-3802,PAYLOAD,2022-11-12 01:13:45,15.08828589,0.000192,53.2172,147.3438,49.8678,310.2482,0.00012619,1.7199999999999998e-05,0.0,0 STARLINK-3802,1 52286U 22041AB  22316.05121621  .00001720  00000-0  12619-3 0  9996,2 52286  53.2172 147.3438 0001920  49.8678 310.2482 15.08828589 32503,6917.915,95.438,541.109,538.452,0.0
52286.0,STARLINK-3802,PAYLOAD,2022-11-12 05:59:54,15.08831223,0.0001919,53.2173,146.4518,50.3703,309.7459,0.0001296999999999,1.776e-05,0.0,0 STARLINK-3802,1 52286U 22041AB  22316.24993571  .00001776  00000-0  12970-3 0  9999,2 52286  53.2173 146.4518 0001919  50.3703 309.7459 15.08831223 31311,6917.906999999997,95.438,541.1,538.445,0.0
52286.0,STARLINK-3802,PAYLOAD,2022-11-12 18:42:59,15.08840431,0.0001929,53.2173,144.0726,51.5677,308.5488,0.00011811,1.592e-05,0.0,0 STARLINK-3802,1 52286U 22041AB  22316.77985192  .00001592  00000-0  11811-3 0  9996,2 52286  53.2173 144.0726 0001929  51.5677 308.5488 15.08840431 32614,6917.879,95.438,541.0790000000002,538.41,0.0
52286.0,STARLINK-3802,PAYLOAD,2022-11-12 20:18:22,15.08840985,0.0001941,53.2174,143.7752,51.6244,308.4923,0.00012019,1.625e-05,0.0,0 STARLINK-3802,1 52286U 22041AB  22316.84609146  .00001625  00000-0  12019-3 0  9994,2 52286  53.2174 143.7752 0001941  51.6244 308.4923 15.08840985 31408,6917.877,95.437,541.085,538.4,0.0
52286.0,STARLINK-3802,PAYLOAD,2022-11-13 12:12:13,15.08842593,0.0001987,53.2173,140.8018,52.8006,307.3167,9e-05,1.145e-05,0.0,0 STARLINK-3802,1 52286U 22041AB  22317.50848975  .00001145  00000-0  90000-4 0  9997,2 52286  53.2173 140.8018 0001987  52.8006 307.3167 15.08842593 31505,6917.871999999999,95.437,541.112,538.363,0.0
52286.0,STARLINK-3802,PAYLOAD,2022-11-13 18:33:46,15.08839191,0.0001958,53.2176,139.6122,52.8721,307.245,-2.4915e-06,-3.28e-06,0.0,0 STARLINK-3802,1 52286U 22041AB  22317.77345485 -.00000328  00000-0 -24915-5 0  9991,2 52286  53.2176 139.6122 0001958  52.8721 307.2450 15.08839191 31540,6917.8830000000025,95.438,541.102,538.393,0.0
52286.0,STARLINK-3802,PAYLOAD,2022-11-14 12:03:00,15.08843487,0.000197,53.2173,136.3408,53.3255,306.7918,-4.2799e-06,-3.56e-06,0.0,0 STARLINK-3802,1 52286U 22041AB  22318.50209068 -.00000356  00000-0 -42799-5 0  9990,2 52286  53.2173 136.3408 0001970  53.3255 306.7918 15.08843487 31658,6917.87,95.437,541.0980000000002,538.372,0.0
52286.0,STARLINK-3802,PAYLOAD,2022-11-14 18:24:32,15.08846485,0.0001992,53.2173,135.1516,53.4611,306.6564,9.0793e-06,-1.44e-06,0.0,0 STARLINK-3802,1 52286U 22041AB  22318.76704711 -.00000144  00000-0  90793-5 0  9994,2 52286  53.2173 135.1516 0001992  53.4611 306.6564 15.08846485 31697,6917.861,95.437,541.104,538.3480000000002,0.0
52286.0,STARLINK-3802,PAYLOAD,2022-11-15 11:53:47,15.088417000000002,0.0001994,53.217,131.8814,50.2154,309.9014,9.1554e-06,-1.42e-06,0.0,0 STARLINK-3802,1 52286U 22041AB  22319.49568640 -.00000142  00000-0  91554-5 0  9998,2 52286  53.2170 131.8814 0001994  50.2154 309.9014 15.08841700 33027,6917.875,95.437,541.12,538.361,0.0
52286.0,STARLINK-3802,PAYLOAD,2022-11-15 18:15:20,15.08834736,0.0001995,53.2174,130.6918,51.1233,308.9937,-1.4493e-05,-5.19e-06,0.0,0 STARLINK-3802,1 52286U 22041AB  22319.76065148 -.00000519  00000-0 -14493-4 0  9998,2 52286  53.2174 130.6918 0001995  51.1233 308.9937 15.08834736 33060,6917.896,95.438,541.1419999999998,538.381,0.0
52286.0,STARLINK-3802,PAYLOAD,2022-11-16 11:44:34,15.08838296,0.000201,53.2175,127.4207,52.1745,307.9429,-1.9082e-05,-5.92e-06,0.0,0 STARLINK-3802,1 52286U 22041AB  22320.48928998 -.00000592  00000-0 -19082-4 0  9990,2 52286  53.2175 127.4207 0002010  52.1745 307.9429 15.08838296 31950,6917.886,95.438,541.141,538.36,0.0
52286.0,STARLINK-3802,PAYLOAD,2022-11-16 18:06:06,15.08841172,0.0002005,53.2176,126.2312,52.2782,307.8392,7.3318e-06,-1.72e-06,0.0,0 STARLINK-3802,1 52286U 22041AB  22320.75424714 -.00000172  00000-0  73318-5 0  9993,2 52286  53.2176 126.2312 0002005  52.2782 307.8392 15.08841172 33217,6917.877,95.437,541.129,538.355,0.0
52286.0,STARLINK-3802,PAYLOAD,2022-11-17 11:35:21,15.08838254,0.0001975,53.2176,122.96,51.2783,308.8385,5.161e-05,5.33e-06,0.0,0 STARLINK-3802,1 52286U 22041AB  22321.48288554  .00000533  00000-0  51610-4 0  9994,2 52286  53.2176 122.9600 0001975  51.2783 308.8385 15.08838254 32102,6917.886,95.438,541.117,538.384,0.0
52286.0,STARLINK-3802,PAYLOAD,2022-11-17 14:46:07,15.08835854,0.0001978,53.2176,122.3651,50.6819,309.4348,2.8002e-05,1.57e-06,0.0,0 STARLINK-3802,1 52286U 22041AB  22321.61536804  .00000157  00000-0  28002-4 0  9994,2 52286  53.2176 122.3651 0001978  50.6819 309.4348 15.08835854 32129,6917.893,95.438,541.126,538.39,0.0
52286.0,STARLINK-3802,PAYLOAD,2022-11-17 16:21:31,15.08833362,0.0001965,53.2179,122.0679,50.4361,309.6804,5.4738e-06,-2.01e-06,0.0,0 STARLINK-3802,1 52286U 22041AB  22321.68161059 -.00000201  00000-0  54738-5 0  9994,2 52286  53.2179 122.0679 0001965  50.4361 309.6804 15.08833362 33352,6917.901,95.438,541.125,538.406,0.0
52286.0,STARLINK-3802,PAYLOAD,2022-11-18 11:26:08,15.08835353,0.0001911,53.2175,118.4988,47.8605,312.2549,-3.3472e-05,-8.21e-06,0.0,0 STARLINK-3802,1 52286U 22041AB  22322.47649298 -.00000821  00000-0 -33472-4 0  9998,2 52286  53.2175 118.4988 0001911  47.8605 312.2549 15.08835353 32258,6917.895,95.438,541.082,538.438,0.0
52286.0,STARLINK-3802,PAYLOAD,2022-11-18 20:58:27,15.08841005,0.0001939,53.2181,116.7149,50.8074,309.309,1.3326e-05,-7.6e-07,0.0,0 STARLINK-3802,1 52286U 22041AB  22322.87392818 -.00000076  00000-0  13326-4 0  9992,2 52286  53.2181 116.7149 0001939  50.8074 309.3090 15.08841005 33530,6917.877,95.437,541.0840000000002,538.401,0.0
52286.0,STARLINK-3802,PAYLOAD,2022-11-19 11:16:56,15.08821817,0.0001898,53.2183,114.0394,49.2626,310.8531,-4.0085e-05,-9.26e-06,0.0,0 STARLINK-3802,1 52286U 22041AB  22323.47010258 -.00000926  00000-0 -40085-4 0  9991,2 52286  53.2183 114.0394 0001898  49.2626 310.8531 15.08821817 33620,6917.936,95.439,541.114,538.488,0.0
52286.0,STARLINK-3802,PAYLOAD,2022-11-19 19:13:52,15.08824771,0.0001987,53.218,112.5521,49.2236,310.8928,-2.1924e-05,-6.37e-06,0.0,0 STARLINK-3802,1 52286U 22041AB  22323.80130328 -.00000637  00000-0 -21924-4 0  9999,2 52286  53.2180 112.5521 0001987  49.2236 310.8928 15.08824771 32450,6917.927,95.439,541.1669999999998,538.4169999999998,0.0
52286.0,STARLINK-3802,PAYLOAD,2022-11-20 03:10:48,15.08827767,0.000197,53.2184,111.0658,49.8299,310.2865,-1.0818e-05,-4.6e-06,0.0,0 STARLINK-3802,1 52286U 22041AB  22324.13250336 -.00000460  00000-0 -10818-4 0  9992,2 52286  53.2184 111.0658 0001970  49.8299 310.2865 15.08827767 33729,6917.918000000002,95.438,541.146,538.42,0.0
52286.0,STARLINK-3802,PAYLOAD,2022-11-20 11:07:43,15.0883228,0.0001897,53.2187,109.5795,49.1366,310.9790000000001,-5.4853e-06,-3.75e-06,0.0,0 STARLINK-3802,1 52286U 22041AB  22324.46370206 -.00000375  00000-0 -54853-5 0  9990,2 52286  53.2187 109.5795 0001897  49.1366 310.9790 15.08832280 32552,6917.904,95.438,541.081,538.457,0.0
52286.0,STARLINK-3802,PAYLOAD,2022-11-20 17:29:16,15.08836812,0.0001955,53.2183,108.3897,49.6033,310.5129,-3.2932e-06,-3.41e-06,0.0,0 STARLINK-3802,1 52286U 22041AB  22324.72866024 -.00000341  00000-0 -32932-5 0  9994,2 52286  53.2183 108.3897 0001955  49.6033 310.5129 15.08836812 33816,6917.89,95.438,541.1080000000002,538.403,0.0
52286.0,STARLINK-3802,PAYLOAD,2022-11-20 19:04:39,15.08837312,0.0001941,53.218,108.092,49.6108,310.5054,1.7005e-06,-2.61e-06,0.0,0 STARLINK-3802,1 52286U 22041AB  22324.79489973 -.00000261  00000-0  17005-5 0  9999,2 52286  53.2180 108.0920 0001941  49.6108 310.5054 15.08837312 32604,6917.889,95.438,541.096,538.411,0.0
52286.0,STARLINK-3802,PAYLOAD,2022-11-21 09:23:06,15.08854505,0.0002001,53.2182,105.4161,48.1317,311.9845,-0.00011584,-2.132e-05,0.0,0 STARLINK-3802,1 52286U 22041AB  22325.39105161 -.00002132  00000-0 -11584-3 0  9994,2 52286  53.2182 105.4161 0002001  48.1317 311.9845 15.08854505 33919,6917.8359999999975,95.437,541.085,538.317,0.0
52286.0,STARLINK-3802,PAYLOAD,2022-11-21 15:44:39,15.08840485,0.0001904,53.2179,104.2264,49.0243,311.0914,0.00016914,2.405e-05,0.0,0 STARLINK-3802,1 52286U 22041AB  22325.65601182  .00002405  00000-0  16914-3 0  9990,2 52286  53.2179 104.2264 0001904  49.0243 311.0914 15.08840485 32734,6917.879,95.438,541.061,538.427,0.0
52286.0,STARLINK-3802,PAYLOAD,2022-11-22 02:52:21,15.08843087,0.0001924,53.2178,102.1451,48.79,311.3258,0.00010081,1.317e-05,0.0,0 STARLINK-3802,1 52286U 22041AB  22326.11969150  .00001317  00000-0  10081-3 0  9994,2 52286  53.2178 102.1451 0001924  48.7900 311.3258 15.08843087 34025,6917.871,95.437,541.067,538.405,0.0
52286.0,STARLINK-3802,PAYLOAD,2022-11-22 14:00:03,15.08843036,0.0001953,53.2181,100.0638,49.7611,310.3552,5.9876e-05,6.65e-06,0.0,0 STARLINK-3802,1 52286U 22041AB  22326.58337172  .00000665  00000-0  59876-4 0  9999,2 52286  53.2181 100.0638 0001953  49.7611 310.3552 15.08843036 32876,6917.871,95.437,541.087,538.385,0.0
52286.0,STARLINK-3802,PAYLOAD,2022-11-22 15:35:26,15.08844492,0.0001963,53.2182,99.7664,49.898,310.2184,6.929399999999999e-05,8.15e-06,0.0,0 STARLINK-3802,1 52286U 22041AB  22326.64961027  .00000815  00000-0  69294-4 0  9990,2 52286  53.2182  99.7664 0001963  49.8980 310.2184 15.08844492 32889,6917.8669999999975,95.437,541.09,538.374,0.0
52286.0,STARLINK-3802,PAYLOAD,2022-11-23 09:04:41,15.08838526,0.0001975,53.2184,96.4962,49.5442,310.5722,-8.8379e-05,-1.694e-05,0.0,0 STARLINK-3802,1 52286U 22041AB  22327.37825824 -.00001694  00000-0 -88379-4 0  9998,2 52286  53.2184  96.4962 0001975  49.5442 310.5722 15.08838526 34210,6917.885,95.438,541.116,538.384,0.0
